OBJECT_NAME,OBJECT_ID,EPOCH,MEAN_MOTION,ECCENTRICITY,INCLINATION,RA_OF_ASC_NODE,ARG_OF_PERICENTER,MEAN_ANOMALY,EPHEMERIS_TYPE,CLASSIFICATION_TYPE,NORAD_CAT_ID,ELEMENT_SET_NO,REV_AT_EPOCH,BSTAR,MEAN_MOTION_DOT,MEAN_MOTION_DDOT
PERSEUS-M1,2014-033AF,2026-06-04T01:21:56.180736,14.95587199,.00110683,97.9641,98.9742,349.8422,10.2573,0,U,40039,999,64867,.24106212E-3,.2617E-4,0
POLYITAN-1,2014-033AJ,2026-06-05T01:01:01.347744,15.32815214,.0007713,98.0948,181.1587,177.6399,182.4878,0,U,40042,999,65173,.69172E-3,.21892E-3,0
TIGRISAT,2014-033AK,2026-06-05T01:20:13.274016,14.85112493,.0050659,97.7823,306.3468,113.8962,246.7573,0,U,40043,999,64382,.31842E-3,.2731E-4,0
AEROCUBE 6A,2014-033AM,2026-06-05T04:49:12.475776,14.97969204,.0039349,97.7220,323.2785,57.3342,303.1666,0,U,40045,999,64482,.51626E-3,.613E-4,0
AEROCUBE 6B,2014-033AN,2026-06-04T01:55:45.359040,14.99411061,.00392524,97.7216,321.9304,53.3146,307.1674,0,U,40046,999,64479,.6027128E-3,.7443E-4,0
CANX-4,2014-034C,2026-06-04T10:51:18.749376,14.81240766,.00139048,98.3135,30.2971,55.6030,304.6494,0,U,40055,999,64264,.16195794E-3,.1206E-4,0
CANX-5,2014-034D,2026-06-04T10:49:16.112352,14.81257887,.00139058,98.3138,30.3384,55.6451,304.6073,0,U,40056,999,63345,.16272442E-3,.1213E-4,0
UKUBE-1,2014-037F,2026-06-03T13:09:49.703616,15.13321645,.00016466,98.4235,156.3901,150.7111,209.4210,0,U,40074,999,64649,.57522925E-3,.10176E-3,0
BRITE-PL2 (HEWELIUSZ),2014-049B,2026-06-04T06:01:24.192480,14.94543231,.00149068,97.9085,267.1526,148.0147,212.1981,0,U,40119,999,63951,.27217109E-3,.2888E-4,0
AEROCUBE 5C,2015-058B,2026-06-04T18:22:45.139872,14.91390657,.0130294,64.7686,301.2303,68.1429,293.3481,0,U,40965,999,36380,.30188E-3,.338E-4,0
AEROCUBE 7,2015-058C,2026-06-04T19:08:26.203200,14.95640365,.0120049,64.7635,283.6208,66.6215,294.7472,0,U,40966,999,36410,.37159E-3,.4609E-4,0
FOX-1A (AO-85),2015-058D,2026-06-04T22:38:39.055776,14.90905473,.0129804,64.7764,317.0315,61.3870,300.0228,0,U,40967,999,11174,.31879E-3,.3528E-4,0
SINOD-D 1,2015-058E,2026-06-05T02:40:11.689824,14.95822852,.0118377,64.7764,296.7275,57.9225,303.3317,0,U,40968,999,11485,.38868E-3,.4835E-4,0
SNAP-3 ALICE,2015-058G,2026-06-05T01:08:21.725952,15.57248766,.0031718,64.7499,145.8062,18.7385,341.4919,0,U,40970,999,11499,.16321E-2,.124123E-2,0
LMRST-SAT,2015-058H,2026-06-04T16:39:58.015008,14.90528004,.0131495,64.7770,314.1193,63.5191,297.9338,0,U,40971,999,11169,.31343E-3,.3445E-4,0
SNAP-3 EDDIE,2015-058J,2026-06-05T01:07:34.946400,15.58438781,.003155,64.7422,136.6209,22.6605,337.5925,0,U,40972,999,11713,.15398E-2,.122426E-2,0
PROPCUBE 3,2015-058K,2026-06-05T02:17:11.479200,14.94185013,.0123532,64.7697,290.3129,64.7249,296.6605,0,U,40973,999,11299,.34598E-3,.4144E-4,0
BISONSAT,2015-058L,2026-06-04T13:34:49.267200,15.15926307,.00782458,64.7585,214.4412,52.4389,308.3809,0,U,40974,999,11370,.51960237E-3,.1062E-3,0
SNAP-3 JIMI,2015-058M,2026-06-04T16:10:17.004288,15.02182343,.0105625,64.7657,259.3605,60.4945,300.6656,0,U,40975,999,11234,.40603E-3,.5868E-4,0
PROPCUBE 1 (FLORA),2015-058N,2026-06-03T15:07:56.902944,14.89150106,.0130197,64.7756,337.2500,66.2388,295.2315,0,U,40976,999,11424,.31462E-3,.3319E-4,0
SINOD-D 3,2015-058P,2026-06-04T22:10:45.695136,14.93931677,.0118775,64.7738,314.1102,63.0075,298.3107,0,U,40977,999,11292,.38761E-3,.458E-4,0
HORYU-4,2016-012D,2026-06-01T10:26:11.976576,15.85409012,.00022929,30.9850,193.7734,171.6706,188.3991,0,U,41340,999,56830,.10080768E-2,.260233E-2,0
RAVAN,2016-067B,2026-06-05T04:42:46.245312,15.53489816,.0006122,97.9896,44.3936,63.8175,296.3705,0,U,41849,999,52583,.69733E-3,.44363E-3,0
CELTEE 1,2016-067C,2026-06-03T13:50:24.892800,15.19540482,.00006371,98.0684,20.2158,73.6065,286.5238,0,U,41850,999,52381,.30174042E-3,.6337E-4,0
OPTICUBE 04,2016-067D,2026-06-03T13:22:48.528768,15.09597028,.00161191,98.0706,6.1301,158.9050,201.2846,0,U,41851,999,52311,.14406702E-3,.225E-4,0
AEROCUBE 8D,2016-067E,2026-06-04T03:47:19.882464,15.24207534,.00038566,98.0693,24.3388,157.4456,202.6950,0,U,41852,999,52408,.35456574E-3,.8564E-4,0
AEROCUBE 8C,2016-067F,2026-06-04T02:51:50.149152,15.24450194,.000676,98.0566,21.5419,103.7079,256.4909,0,U,41853,999,52407,.36698624E-3,.8936E-4,0
CORVUS BC2,2017-042X,2026-06-04T23:18:50.445216,15.06218576,.0014012,97.4066,317.7984,147.5409,212.6683,0,U,42846,999,48522,.27523E-3,.3984E-4,0
CORVUS BC1,2017-042Y,2026-06-05T00:48:42.988032,15.06387905,.0013406,97.4095,318.6640,125.9681,234.2793,0,U,42847,999,48526,.25447E-3,.3695E-4,0
MAKERSAT 0,2017-073D,2026-06-04T04:20:33.622080,15.31596076,.0106721,97.4650,37.6017,320.0172,39.3245,0,U,43016,999,46447,.63992E-3,.23305E-3,0
